ONEWEB-0387             
1 49313U 21090AL  26134.65571478  .00000131  00000+0  29020-3 0  9991
2 49313  87.9151 281.1438 0001999 107.4208 252.7144 13.20636722225398
ONEWEB-0388             
1 49314U 21090AM  26135.04845823  .00000049  00000+0  90395-4 0  9996
2 49314  87.9145 311.5779 0001964  92.0342 268.1015 13.19725420222047
ONEWEB-0389             
1 50469U 21132A   26135.16648838  .00000098  00000+0  21932-3 0  9990
2 50469  87.9161  12.4334 0002075  91.7313 268.4056 13.17650086213737
ONEWEB-0390             
1 50470U 21132B   26135.16817171  .00000108  00000+0  24583-3 0  9997
2 50470  87.9164  12.4338 0001611  85.9190 274.2126 13.17649307213736
ONEWEB-0391             
1 50471U 21132C   26135.16986106  .00000099  00000+0  22236-3 0  9995
2 50471  87.9162  12.4432 0002089 105.0312 255.1051 13.17649670213738
ONEWEB-0392             
1 50472U 21132D   26135.20023850  .00000069  00000+0  14424-3 0  9996
2 50472  87.9173  12.4028 0002036  93.1185 267.0180 13.17648642213776
ONEWEB-0393             
1 50473U 21132E   26135.17575954  .00000052  00000+0  99515-4 0  9997
2 50473  87.9165  12.4275 0001935  86.9993 273.1360 13.17647280213760
ONEWEB-0394             
1 50474U 21132F   26135.09184404  .00000105  00000+0  23357-3 0  9994
2 50474  87.9176 342.0275 0002028  91.5144 268.6220 13.18687455217238
ONEWEB-0395             
1 50475U 21132G   26135.20682577  .00000061  00000+0  13664-3 0  9993
2 50475  87.8913  27.6287 0001707  87.1777 272.9547 13.11417156211395
ONEWEB-0396             
1 50476U 21132H   26135.08509764  .00000077  00000+0  16370-3 0  9990
2 50476  87.9179 342.0410 0001980  90.6648 269.4711 13.18686881217279
ONEWEB-0397             
1 50477U 21132J   26135.10027522  .00000065  00000+0  13093-3 0  9997
2 50477  87.9178 342.0384 0002062  86.5106 273.6262 13.18687104217259
ONEWEB-0398             
1 50478U 21132K   26135.17461855 -.00000184  00000+0 -55584-3 0  9991
2 50478  87.8924  27.6228 0001583  84.5213 275.6096 13.11414229211288
ONEWEB-0399             
1 50479U 21132L   26135.23735266  .00000435  00000+0  11913-2 0  9993
2 50479  87.8923  27.6204 0002250  88.1580 271.9806 13.11414680211280
ONEWEB-0400             
1 50480U 21132M   26135.07834255  .00000014  00000+0  17463-5 0  9997
2 50480  87.9177 342.0323 0001652  89.1036 271.0285 13.18687442217241
ONEWEB-0401             
1 50481U 21132N   26135.04800742  .00000023  00000+0  26058-4 0  9998
2 50481  87.9176 342.0356 0002391  69.2265 290.9123 13.18687341217240
ONEWEB-0402             
1 50482U 21132P   26135.08677574  .00000062  00000+0  12563-3 0  9996
2 50482  87.9176 342.0175 0002199  77.7983 282.3396 13.18686063217277
