[{"OBJECT_NAME":"ONEWEB-0387","OBJECT_ID":"2021-090AL","EPOCH":"2026-05-14T15:44:13.756992","MEAN_MOTION":13.20636722,"ECCENTRICITY":0.0001999,"INCLINATION":87.9151,"RA_OF_ASC_NODE":281.1438,"ARG_OF_PERICENTER":107.4208,"MEAN_ANOMALY":252.7144,"EPHEMERIS_TYPE":0,"CLASSIFICATION_TYPE":"U","NORAD_CAT_ID":49313,"ELEMENT_SET_NO":999,"REV_AT_EPOCH":22539,"BSTAR":0.0002902,"MEAN_MOTION_DOT":1.31e-06,"MEAN_MOTION_DDOT":0.0},{"OBJECT_NAME":"ONEWEB-0388","OBJECT_ID":"2021-090AM","EPOCH":"2026-05-15T01:09:46.791072","MEAN_MOTION":13.1972542,"ECCENTRICITY":0.0001964,"INCLINATION":87.9145,"RA_OF_ASC_NODE":311.5779,"ARG_OF_PERICENTER":92.0342,"MEAN_ANOMALY":268.1015,"EPHEMERIS_TYPE":0,"CLASSIFICATION_TYPE":"U","NORAD_CAT_ID":49314,"ELEMENT_SET_NO":999,"REV_AT_EPOCH":22204,"BSTAR":9.0395e-05,"MEAN_MOTION_DOT":4.9e-07,"MEAN_MOTION_DDOT":0.0},{"OBJECT_NAME":"ONEWEB-0389","OBJECT_ID":"2021-132A","EPOCH":"2026-05-15T03:59:44.596032","MEAN_MOTION":13.17650086,"ECCENTRICITY":0.0002075,"INCLINATION":87.9161,"RA_OF_ASC_NODE":12.4334,"ARG_OF_PERICENTER":91.7313,"MEAN_ANOMALY":268.4056,"EPHEMERIS_TYPE":0,"CLASSIFICATION_TYPE":"U","NORAD_CAT_ID":50469,"ELEMENT_SET_NO":999,"REV_AT_EPOCH":21373,"BSTAR":0.00021931999999999998,"MEAN_MOTION_DOT":9.8e-07,"MEAN_MOTION_DDOT":0.0},{"OBJECT_NAME":"ONEWEB-0390","OBJECT_ID":"2021-132B","EPOCH":"2026-05-15T04:02:10.035744","MEAN_MOTION":13.17649307,"ECCENTRICITY":0.0001611,"INCLINATION":87.9164,"RA_OF_ASC_NODE":12.4338,"ARG_OF_PERICENTER":85.919,"MEAN_ANOMALY":274.2126,"EPHEMERIS_TYPE":0,"CLASSIFICATION_TYPE":"U","NORAD_CAT_ID":50470,"ELEMENT_SET_NO":999,"REV_AT_EPOCH":21373,"BSTAR":0.00024583,"MEAN_MOTION_DOT":1.08e-06,"MEAN_MOTION_DDOT":0.0},{"OBJECT_NAME":"ONEWEB-0391","OBJECT_ID":"2021-132C","EPOCH":"2026-05-15T04:04:35.995584","MEAN_MOTION":13.1764967,"ECCENTRICITY":0.0002089,"INCLINATION":87.9162,"RA_OF_ASC_NODE":12.4432,"ARG_OF_PERICENTER":105.0312,"MEAN_ANOMALY":255.1051,"EPHEMERIS_TYPE":0,"CLASSIFICATION_TYPE":"U","NORAD_CAT_ID":50471,"ELEMENT_SET_NO":999,"REV_AT_EPOCH":21373,"BSTAR":0.00022236,"MEAN_MOTION_DOT":9.9e-07,"MEAN_MOTION_DDOT":0.0},{"OBJECT_NAME":"ONEWEB-0392","OBJECT_ID":"2021-132D","EPOCH":"2026-05-15T04:48:20.606400","MEAN_MOTION":13.17648642,"ECCENTRICITY":0.0002036,"INCLINATION":87.9173,"RA_OF_ASC_NODE":12.4028,"ARG_OF_PERICENTER":93.1185,"MEAN_ANOMALY":267.018,"EPHEMERIS_TYPE":0,"CLASSIFICATION_TYPE":"U","NORAD_CAT_ID":50472,"ELEMENT_SET_NO":999,"REV_AT_EPOCH":21377,"BSTAR":0.00014424000000000001,"MEAN_MOTION_DOT":6.9e-07,"MEAN_MOTION_DDOT":0.0},{"OBJECT_NAME":"ONEWEB-0393","OBJECT_ID":"2021-132E","EPOCH":"2026-05-15T04:13:05.624256","MEAN_MOTION":13.1764728,"ECCENTRICITY":0.0001935,"INCLINATION":87.9165,"RA_OF_ASC_NODE":12.4275,"ARG_OF_PERICENTER":86.9993,"MEAN_ANOMALY":273.136,"EPHEMERIS_TYPE":0,"CLASSIFICATION_TYPE":"U","NORAD_CAT_ID":50473,"ELEMENT_SET_NO":999,"REV_AT_EPOCH":21376,"BSTAR":9.9515e-05,"MEAN_MOTION_DOT":5.2e-07,"MEAN_MOTION_DDOT":0.0},{"OBJECT_NAME":"ONEWEB-0394","OBJECT_ID":"2021-132F","EPOCH":"2026-05-15T02:12:15.325056","MEAN_MOTION":13.18687455,"ECCENTRICITY":0.0002028,"INCLINATION":87.9176,"RA_OF_ASC_NODE":342.0275,"ARG_OF_PERICENTER":91.5144,"MEAN_ANOMALY":268.622,"EPHEMERIS_TYPE":0,"CLASSIFICATION_TYPE":"U","NORAD_CAT_ID":50474,"ELEMENT_SET_NO":999,"REV_AT_EPOCH":21723,"BSTAR":0.00023357,"MEAN_MOTION_DOT":1.05e-06,"MEAN_MOTION_DDOT":0.0},{"OBJECT_NAME":"ONEWEB-0395","OBJECT_ID":"2021-132G","EPOCH":"2026-05-15T04:57:49.746528","MEAN_MOTION":13.11417156,"ECCENTRICITY":0.0001707,"INCLINATION":87.8913,"RA_OF_ASC_NODE":27.6287,"ARG_OF_PERICENTER":87.1777,"MEAN_ANOMALY":272.9547,"EPHEMERIS_TYPE":0,"CLASSIFICATION_TYPE":"U","NORAD_CAT_ID":50475,"ELEMENT_SET_NO":999,"REV_AT_EPOCH":21139,"BSTAR":0.00013664000000000002,"MEAN_MOTION_DOT":6.1e-07,"MEAN_MOTION_DDOT":0.0},{"OBJECT_NAME":"ONEWEB-0396","OBJECT_ID":"2021-132H","EPOCH":"2026-05-15T02:02:32.436096","MEAN_MOTION":13.18686881,"ECCENTRICITY":0.000198,"INCLINATION":87.9179,"RA_OF_ASC_NODE":342.041,"ARG_OF_PERICENTER":90.6648,"MEAN_ANOMALY":269.4711,"EPHEMERIS_TYPE":0,"CLASSIFICATION_TYPE":"U","NORAD_CAT_ID":50476,"ELEMENT_SET_NO":999,"REV_AT_EPOCH":21727,"BSTAR":0.00016370000000000002,"MEAN_MOTION_DOT":7.7e-07,"MEAN_MOTION_DDOT":0.0},{"OBJECT_NAME":"ONEWEB-0397","OBJECT_ID":"2021-132J","EPOCH":"2026-05-15T02:24:23.779008","MEAN_MOTION":13.18687104,"ECCENTRICITY":0.0002062,"INCLINATION":87.9178,"RA_OF_ASC_NODE":342.0384,"ARG_OF_PERICENTER":86.5106,"MEAN_ANOMALY":273.6262,"EPHEMERIS_TYPE":0,"CLASSIFICATION_TYPE":"U","NORAD_CAT_ID":50477,"ELEMENT_SET_NO":999,"REV_AT_EPOCH":21725,"BSTAR":0.00013093,"MEAN_MOTION_DOT":6.5e-07,"MEAN_MOTION_DDOT":0.0},{"OBJECT_NAME":"ONEWEB-0398","OBJECT_ID":"2021-132K","EPOCH":"2026-05-15T04:11:27.042720","MEAN_MOTION":13.11414229,"ECCENTRICITY":0.0001583,"INCLINATION":87.8924,"RA_OF_ASC_NODE":27.6228,"ARG_OF_PERICENTER":84.5213,"MEAN_ANOMALY":275.6096,"EPHEMERIS_TYPE":0,"CLASSIFICATION_TYPE":"U","NORAD_CAT_ID":50478,"ELEMENT_SET_NO":999,"REV_AT_EPOCH":21128,"BSTAR":-0.00055584,"MEAN_MOTION_DOT":-1.84e-06,"MEAN_MOTION_DDOT":0.0},{"OBJECT_NAME":"ONEWEB-0399","OBJECT_ID":"2021-132L","EPOCH":"2026-05-15T05:41:47.269824","MEAN_MOTION":13.1141468,"ECCENTRICITY":0.000225,"INCLINATION":87.8923,"RA_OF_ASC_NODE":27.6204,"ARG_OF_PERICENTER":88.158,"MEAN_ANOMALY":271.9806,"EPHEMERIS_TYPE":0,"CLASSIFICATION_TYPE":"U","NORAD_CAT_ID":50479,"ELEMENT_SET_NO":999,"REV_AT_EPOCH":21128,"BSTAR":0.0011913,"MEAN_MOTION_DOT":4.35e-06,"MEAN_MOTION_DDOT":0.0},{"OBJECT_NAME":"ONEWEB-0400","OBJECT_ID":"2021-132M","EPOCH":"2026-05-15T01:52:48.796320","MEAN_MOTION":13.18687442,"ECCENTRICITY":0.0001652,"INCLINATION":87.9177,"RA_OF_ASC_NODE":342.0323,"ARG_OF_PERICENTER":89.1036,"MEAN_ANOMALY":271.0285,"EPHEMERIS_TYPE":0,"CLASSIFICATION_TYPE":"U","NORAD_CAT_ID":50480,"ELEMENT_SET_NO":999,"REV_AT_EPOCH":21724,"BSTAR":1.7463000000000001e-06,"MEAN_MOTION_DOT":1.4e-07,"MEAN_MOTION_DDOT":0.0},{"OBJECT_NAME":"ONEWEB-0401","OBJECT_ID":"2021-132N","EPOCH":"2026-05-15T01:09:07.841088","MEAN_MOTION":13.18687341,"ECCENTRICITY":0.0002391,"INCLINATION":87.9176,"RA_OF_ASC_NODE":342.0356,"ARG_OF_PERICENTER":69.2265,"MEAN_ANOMALY":290.9123,"EPHEMERIS_TYPE":0,"CLASSIFICATION_TYPE":"U","NORAD_CAT_ID":50481,"ELEMENT_SET_NO":999,"REV_AT_EPOCH":21724,"BSTAR":2.6058e-05,"MEAN_MOTION_DOT":2.3e-07,"MEAN_MOTION_DDOT":0.0},{"OBJECT_NAME":"ONEWEB-0402","OBJECT_ID":"2021-132P","EPOCH":"2026-05-15T02:04:57.423936","MEAN_MOTION":13.18686063,"ECCENTRICITY":0.0002199,"INCLINATION":87.9176,"RA_OF_ASC_NODE":342.0175,"ARG_OF_PERICENTER":77.7983,"MEAN_ANOMALY":282.3396,"EPHEMERIS_TYPE":0,"CLASSIFICATION_TYPE":"U","NORAD_CAT_ID":50482,"ELEMENT_SET_NO":999,"REV_AT_EPOCH":21727,"BSTAR":0.00012563,"MEAN_MOTION_DOT":6.2e-07,"MEAN_MOTION_DDOT":0.0}]